[Satellite]
VERSION=1.1
NAME=CZ-6A DEB
NICKNAME=CZ-6A DEB
TLE1=1 54550U 22151LA  22342.48995590  .00000974  00000+0  37102-3 0  9997
TLE2=2 54550  98.7514 347.5466 0072362 146.6714 213.9055 14.31719925  3537
STATUS=0
